[
 {
 "name": "Belarus",
 "dial_code": "+375",
 "code": "BY"
 },
 {
 "name": "Denmark",
 "dial_code": "+45",
 "code": "DK"
 },
 {
 "name": "Finland",
 "dial_code": "+358",
 "code": "FI"
 },
 {
 "name": "France",
 "dial_code": "+33",
 "code": "FR"
 },
 {
 "name": "Germany",
 "dial_code": "+49",
 "code": "DE"
 },
 {
 "name": "Ukraine",
 "dial_code": "+380",
 "code": "UA"
 },
 {
 "name": "Poland",
 "dial_code": "+48",
 "code": "PL"
 },
 {
 "name": "Estonia",
 "dial_code": "+372",
 "code": "EE"
 },
 {
 "name": "Georgia",
 "dial_code": "+995",
 "code": "GE"
 },
 {
 "name": "Netherlands",
 "dial_code": "+31",
 "code": "NL"
 },
 {
 "name": "Russia",
 "dial_code": "+7",
 "code": "RU"
 },
 {
 "name": "United Kingdom",
 "dial_code": "+44",
 "code": "GB"
 },
 {
 "name": "Latvia",
 "dial_code": "+371",
 "code": "LV"
 },
 {
 "name": "Sweden",
 "dial_code": "+46",
 "code": "SE"
 },
 {
 "name": "Lithuania",
 "dial_code": "+370",
 "code": "LT"
 },
 {
 "name": "Norway",
 "dial_code": "+47",
 "code": "NO"
 }
]
